GLOBALSTAR M084         
1 38040U 11080A   23342.35144184 -.00000086  00000+0  98823-4 0  9997
2 38040  52.0027 303.6861 0000322  26.1176 138.0897 12.62268839552623
GLOBALSTAR M080         
1 38041U 11080B   23342.40657962 -.00000097  00000+0  38505-4 0  9990
2 38041  52.0080 304.9299 0000158  29.0684 145.7285 12.62267078552614
GLOBALSTAR M082         
1 38042U 11080C   23341.22939590 -.00000104  00000+0  10427-5 0  9993
2 38042  52.0086 263.8977 0001415  52.6868 111.5164 12.62263980553032
GLOBALSTAR M092         
1 38043U 11080D   23342.04202302 -.00000094  00000+0  52371-4 0  9990
2 38043  52.0108 351.7717 0000143 326.3026  52.2978 12.62247502551800
GLOBALSTAR M090         
1 38044U 11080E   23341.95981128 -.00000094  00000+0  52455-4 0  9993
2 38044  51.9886 256.2017 0001086  62.3656  63.1601 12.62264365553281
GLOBALSTAR M086         
1 38045U 11080F   23341.19932519 -.00000091  00000+0  68899-4 0  9996
2 38045  51.9901 259.0264 0001138 115.5242  31.5929 12.62265322553090
GLOBALSTAR M097         
1 39072U 13005A   23341.51004405 -.00000074  00000+0  16540-3 0  9992
2 39072  52.0019 172.0593 0001394  91.8905 268.2122 12.62273458500385
GLOBALSTAR M093         
1 39073U 13005B   23341.72109237 -.00000077  00000+0  15120-3 0  9991
2 39073  51.9782 165.6113 0001566 100.3586 259.7457 12.62278176500488
